{
  "type": "FeatureCollection",
  "features": [
    {
      "type": "Feature",
      "properties": {
        "OBJECT_NAME": "CARTOSAT-2A",
        "OBJECT_ID": "2008-021A",
        "EPOCH": "2025-11-29T21:11:55.597632",
        "MEAN_MOTION": 14.78897293,
        "ECCENTRICITY": 0.0012703,
        "INCLINATION": 97.7949,
        "RA_OF_ASC_NODE": 24.1076,
        "ARG_OF_PERICENTER": 44.5245,
        "MEAN_ANOMALY": 315.6985,
        "EPHEMERIS_TYPE": 0,
        "CLASSIFICATION_TYPE": "U",
        "NORAD_CAT_ID": 32783,
        "ELEMENT_SET_NO": 999,
        "REV_AT_EPOCH": 94934,
        "BSTAR": 0.00013458,
        "MEAN_MOTION_DOT": 9.43e-06,
        "MEAN_MOTION_DDOT": 0,
        "norad_id": 32783,
        "name": "CARTOSAT-2A",
        "group": "resource",
        "longitude_deg": NaN,
        "latitude_deg": NaN,
        "alt_km": NaN,
        "orbit_class": "HEO",
        "timestamp": "2025-11-30T04:58:49.599988+00:00"
      },
      "geometry": {
        "type": "Point",
        "coordinates": [
          NaN,
          NaN
        ]
      }
    },
    {
      "type": "Feature",
      "properties": {
        "OBJECT_NAME": "GEOEYE 1",
        "OBJECT_ID": "2008-042A",
        "EPOCH": "2025-11-29T19:32:11.372928",
        "MEAN_MOTION": 14.64783647,
        "ECCENTRICITY": 0.0003173,
        "INCLINATION": 98.1267,
        "RA_OF_ASC_NODE": 45.2554,
        "ARG_OF_PERICENTER": 331.4615,
        "MEAN_ANOMALY": 28.6414,
        "EPHEMERIS_TYPE": 0,
        "CLASSIFICATION_TYPE": "U",
        "NORAD_CAT_ID": 33331,
        "ELEMENT_SET_NO": 999,
        "REV_AT_EPOCH": 92096,
        "BSTAR": 0.00012528,
        "MEAN_MOTION_DOT": 6.2e-06,
        "MEAN_MOTION_DDOT": 0,
        "norad_id": 33331,
        "name": "GEOEYE 1",
        "group": "resource",
        "longitude_deg": NaN,
        "latitude_deg": NaN,
        "alt_km": NaN,
        "orbit_class": "HEO",
        "timestamp": "2025-11-30T04:58:49.600146+00:00"
      },
      "geometry": {
        "type": "Point",
        "coordinates": [
          NaN,
          NaN
        ]
      }
    },
    {
      "type": "Feature",
      "properties": {
        "OBJECT_NAME": "THEOS",
        "OBJECT_ID": "2008-049A",
        "EPOCH": "2025-11-29T20:35:59.102016",
        "MEAN_MOTION": 14.20091998,
        "ECCENTRICITY": 0.0001081,
        "INCLINATION": 98.5886,
        "RA_OF_ASC_NODE": 32.3268,
        "ARG_OF_PERICENTER": 99.9739,
        "MEAN_ANOMALY": 260.156,
        "EPHEMERIS_TYPE": 0,
        "CLASSIFICATION_TYPE": "U",
        "NORAD_CAT_ID": 33396,
        "ELEMENT_SET_NO": 999,
        "REV_AT_EPOCH": 88967,
        "BSTAR": 4.8603e-05,
        "MEAN_MOTION_DOT": 6.1e-07,
        "MEAN_MOTION_DDOT": 0,
        "norad_id": 33396,
        "name": "THEOS",
        "group": "resource",
        "longitude_deg": NaN,
        "latitude_deg": NaN,
        "alt_km": NaN,
        "orbit_class": "HEO",
        "timestamp": "2025-11-30T04:58:49.600165+00:00"
      },
      "geometry": {
        "type": "Point",
        "coordinates": [
          NaN,
          NaN
        ]
      }
    },
    {
      "type": "Feature",
      "properties": {
        "OBJECT_NAME": "COSMO-SKYMED 3",
        "OBJECT_ID": "2008-054A",
        "EPOCH": "2025-11-29T20:08:13.284096",
        "MEAN_MOTION": 15.05169927,
        "ECCENTRICITY": 0.0015019,
        "INCLINATION": 97.8485,
        "RA_OF_ASC_NODE": 184.0147,
        "ARG_OF_PERICENTER": 216.9509,
        "MEAN_ANOMALY": 143.0684,
        "EPHEMERIS_TYPE": 0,
        "CLASSIFICATION_TYPE": "U",
        "NORAD_CAT_ID": 33412,
        "ELEMENT_SET_NO": 999,
        "REV_AT_EPOCH": 92693,
        "BSTAR": 0.00030781,
        "MEAN_MOTION_DOT": 4.333e-05,
        "MEAN_MOTION_DDOT": 0,
        "norad_id": 33412,
        "name": "COSMO-SKYMED 3",
        "group": "resource",
        "longitude_deg": NaN,
        "latitude_deg": NaN,
        "alt_km": NaN,
        "orbit_class": "HEO",
        "timestamp": "2025-11-30T04:58:49.600183+00:00"
      },
      "geometry": {
        "type": "Point",
        "coordinates": [
          NaN,
          NaN
        ]
      }
    },
    {
      "type": "Feature",
      "properties": {
        "OBJECT_NAME": "GOSAT (IBUKI)",
        "OBJECT_ID": "2009-002A",
        "EPOCH": "2025-11-29T18:34:57.570816",
        "MEAN_MOTION": 14.67549473,
        "ECCENTRICITY": 0.0001044,
        "INCLINATION": 98.0769,
        "RA_OF_ASC_NODE": 82.5582,
        "ARG_OF_PERICENTER": 83.7185,
        "MEAN_ANOMALY": 276.4138,
        "EPHEMERIS_TYPE": 0,
        "CLASSIFICATION_TYPE": "U",
        "NORAD_CAT_ID": 33492,
        "ELEMENT_SET_NO": 999,
        "REV_AT_EPOCH": 90221,
        "BSTAR": 0.00016889,
        "MEAN_MOTION_DOT": 9.1e-06,
        "MEAN_MOTION_DDOT": 0,
        "norad_id": 33492,
        "name": "GOSAT (IBUKI)",
        "group": "resource",
        "longitude_deg": NaN,
        "latitude_deg": NaN,
        "alt_km": NaN,
        "orbit_class": "HEO",
        "timestamp": "2025-11-30T04:58:49.600222+00:00"
      },
      "geometry": {
        "type": "Point",
        "coordinates": [
          NaN,
          NaN
        ]
      }
    },
    {
      "type": "Feature",
      "properties": {
        "OBJECT_NAME": "DUBAISAT-1",
        "OBJECT_ID": "2009-041B",
        "EPOCH": "2025-11-29T20:00:25.238016",
        "MEAN_MOTION": 14.74545547,
        "ECCENTRICITY": 0.0010397,
        "INCLINATION": 97.9785,
        "RA_OF_ASC_NODE": 104.7049,
        "ARG_OF_PERICENTER": 358.1939,
        "MEAN_ANOMALY": 1.923,
        "EPHEMERIS_TYPE": 0,
        "CLASSIFICATION_TYPE": "U",
        "NORAD_CAT_ID": 35682,
        "ELEMENT_SET_NO": 999,
        "REV_AT_EPOCH": 87571,
        "BSTAR": 0.0001969,
        "MEAN_MOTION_DOT": 1.261e-05,
        "MEAN_MOTION_DDOT": 0,
        "norad_id": 35682,
        "name": "DUBAISAT-1",
        "group": "resource",
        "longitude_deg": NaN,
        "latitude_deg": NaN,
        "alt_km": NaN,
        "orbit_class": "HEO",
        "timestamp": "2025-11-30T04:58:49.600325+00:00"
      },
      "geometry": {
        "type": "Point",
        "coordinates": [
          NaN,
          NaN
        ]
      }
    },
    {
      "type": "Feature",
      "properties": {
        "OBJECT_NAME": "OCEANSAT-2",
        "OBJECT_ID": "2009-051A",
        "EPOCH": "2025-11-29T21:27:44.405280",
        "MEAN_MOTION": 13.996273,
        "ECCENTRICITY": 0.0016769,
        "INCLINATION": 98.2235,
        "RA_OF_ASC_NODE": 335.7969,
        "ARG_OF_PERICENTER": 78.3395,
        "MEAN_ANOMALY": 281.9653,
        "EPHEMERIS_TYPE": 0,
        "CLASSIFICATION_TYPE": "U",
        "NORAD_CAT_ID": 35931,
        "ELEMENT_SET_NO": 999,
        "REV_AT_EPOCH": 85145,
        "BSTAR": -7.3286e-05,
        "MEAN_MOTION_DOT": -1.45e-06,
        "MEAN_MOTION_DDOT": 0,
        "norad_id": 35931,
        "name": "OCEANSAT-2",
        "group": "resource",
        "longitude_deg": NaN,
        "latitude_deg": NaN,
        "alt_km": NaN,
        "orbit_class": "HEO",
        "timestamp": "2025-11-30T04:58:49.600393+00:00"
      },
      "geometry": {
        "type": "Point",
        "coordinates": [
          NaN,
          NaN
        ]
      }
    },
    {
      "type": "Feature",
      "properties": {
        "OBJECT_NAME": "WORLDVIEW-2 (WV-2)",
        "OBJECT_ID": "2009-055A",
        "EPOCH": "2025-11-29T19:01:35.733216",
        "MEAN_MOTION": 14.37643042,
        "ECCENTRICITY": 0.0005451,
        "INCLINATION": 98.4775,
        "RA_OF_ASC_NODE": 45.0579,
        "ARG_OF_PERICENTER": 97.7886,
        "MEAN_ANOMALY": 262.392,
        "EPHEMERIS_TYPE": 0,
        "CLASSIFICATION_TYPE": "U",
        "NORAD_CAT_ID": 35946,
        "ELEMENT_SET_NO": 999,
        "REV_AT_EPOCH": 84699,
        "BSTAR": 7.4657e-05,
        "MEAN_MOTION_DOT": 1.81e-06,
        "MEAN_MOTION_DDOT": 0,
        "norad_id": 35946,
        "name": "WORLDVIEW-2 (WV-2)",
        "group": "resource",
        "longitude_deg": NaN,
        "latitude_deg": NaN,
        "alt_km": NaN,
        "orbit_class": "HEO",
        "timestamp": "2025-11-30T04:58:49.600432+00:00"
      },
      "geometry": {
        "type": "Point",
        "coordinates": [
          NaN,
          NaN
        ]
      }
    }
  ]
}