CARTOSAT-2A             
1 32783U 08021A   25333.88328238  .00000943  00000+0  13458-3 0  9991
2 32783  97.7949  24.1076 0012703  44.5245 315.6985 14.78897293949341
GEOEYE 1                
1 33331U 08042A   25333.81402052  .00000620  00000+0  12528-3 0  9993
2 33331  98.1267  45.2554 0003173 331.4615  28.6414 14.64783647920961
THEOS                   
1 33396U 08049A   25333.85832294  .00000061  00000+0  48603-4 0  9993
2 33396  98.5886  32.3268 0001081  99.9739 260.1560 14.20091998889671
COSMO-SKYMED 3          
1 33412U 08054A   25333.83904264  .00004333  00000+0  30781-3 0  9996
2 33412  97.8485 184.0147 0015019 216.9509 143.0684 15.05169927926939
GOSAT (IBUKI)           
1 33492U 09002A   25333.77427744  .00000910  00000+0  16889-3 0  9994
2 33492  98.0769  82.5582 0001044  83.7185 276.4138 14.67549473902218
DUBAISAT-1              
1 35682U 09041B   25333.83362544  .00001261  00000+0  19690-3 0  9996
2 35682  97.9785 104.7049 0010397 358.1939   1.9230 14.74545547875713
OCEANSAT-2              
1 35931U 09051A   25333.89426395 -.00000145  00000+0 -73286-4 0  9999
2 35931  98.2235 335.7969 0016769  78.3395 281.9653 13.99627300851455
WORLDVIEW-2 (WV-2)      
1 35946U 09055A   25333.79277469  .00000181  00000+0  74657-4 0  9995
2 35946  98.4775  45.0579 0005451  97.7886 262.3920 14.37643042846993
